STARLINK-36889          
1 68006U 26039W   26079.50001157 -.01854616  00000+0 -33902-1 0  9993
2 68006  42.9999 349.4297 0000645 265.7868 281.5908 15.52074251  4615
STARLINK-36592          
1 68007U 26039X   26079.50001157 -.01920635  00000+0 -29993-1 0  9994
2 68007  43.0000 349.1599 0001222 256.4817  39.8526 15.56452270  4611
STARLINK-36911          
1 68008U 26039Y   26079.50001157 -.01911922  00000+0 -31569-1 0  9996
2 68008  42.9996 349.2334 0001087 251.7419  14.8249 15.54946886  4611
STARLINK-36956          
1 68009U 26039Z   26079.50001157 -.01868907  00000+0 -32131-1 0  9997
2 68009  42.9998 349.2906 0001076 249.6743 353.7573 15.53772911  4613
STARLINK-36953          
1 68010U 26039AA  26079.50001157 -.01961476  00000+0 -25552-1 0  9993
2 68010  43.0001 348.8803 0001605 262.2571 146.5315 15.61249073  4610
STARLINK-36991          
1 68011U 26039AB  26079.50001157 -.00102186  00000+0 -17534-2 0  9990
2 68011  42.9999 349.9559 0002373 251.2335  82.2271 15.50662560  4619
STARLINK-36936          
1 68012U 26039AC  26079.50001157 -.01850444  00000+0 -32039-1 0  9995
2 68012  42.9999 349.2497 0001142 249.8597   9.5940 15.53545125  4615
STARLINK-36967          
1 68013U 26039AD  26079.50001157  .00042223  00000+0  72287-3 0  9992
2 68013  43.0002 349.8830 0001441 266.7086  96.7657 15.50531754  4616
STARLINK-36985          
1 68014U 26039AE  26079.50001157 -.01959315  00000+0 -25037-1 0  9994
2 68014  43.0001 348.8365 0001686 264.9437 161.0543 15.61735670  4614
STARLINK-36335          
1 68015U 26040A   26079.50001157 -.01910409  00000+0 -13607-1 0  9998
2 68015  97.2821  28.4730 0001740  87.4247  24.0667 15.76954625  4110
STARLINK-36923          
1 68016U 26040B   26079.50001157 -.01324539  00000+0 -94946-2 0  9998
2 68016  97.2825  28.4770 0001507  90.0974  28.1035 15.76204143  4169
STARLINK-36568          
1 68017U 26040C   26079.50001157 -.01236933  00000+0 -89990-2 0  9992
2 68017  97.2823  28.4782 0001520  90.6491  31.6134 15.76130871  4161
